     2.11           N: GPS NAV DATA                         RINEX VERSION / TYPE
teqc  2019Feb25                         20221121 12:28:25UTCPGM / RUN BY / DATE
OSX ker:10.11.6|Core i5|gcc 4.3 -m64|OSX ker:10.10+|=+      COMMENT
    1.1176D-08  0.0000D+00 -5.9605D-08  0.0000D+00          ION ALPHA
    9.0112D+04  0.0000D+00 -1.9661D+05  0.0000D+00          ION BETA
    3.725290298462D-09 3.552713678801D-15   589824     1553 DELTA-UTC: A0,A1,T,W
                                                            END OF HEADER
13 09 10 16  2  0  0.0 3.056502901018D-04 2.273736754432D-13 0.000000000000D+00
    1.010000000000D+02-8.975000000000D+01 3.613364796862D-09 6.123977298978D-01
   -4.695728421211D-06 3.958415240049D-03 1.166574656963D-05 5.153645099640D+03
    4.392000000000D+05-5.774199962616D-08-7.477385631811D-01-4.284083843231D-08
    9.942903878885D-01 1.728750000000D+02 1.661721666657D+00-7.693534752318D-09
   -4.714482091388D-10 1.000000000000D+00 1.553000000000D+03 0.000000000000D+00
    2.000000000000D+00 0.000000000000D+00-1.117587089539D-08 1.010000000000D+02
    4.320180000000D+05 4.000000000000D+00
 4 09 10 16  2  0  0.0-3.129304386675D-04-1.773514668457D-11 0.000000000000D+00
    6.600000000000D+01 9.037500000000D+01 4.926990943235D-09 2.830217550721D+00
    4.742294549942D-06 8.939133840613D-03 1.056492328644D-05 5.153562158585D+03
    4.392000000000D+05-8.195638656616D-08-2.900844976843D+00-1.378357410431D-07
    9.403610437320D-01 1.657500000000D+02 5.379501872589D-01-8.109623512656D-09
    4.807343102279D-10 1.000000000000D+00 1.553000000000D+03 0.000000000000D+00
    2.000000000000D+00 0.000000000000D+00-6.053596735001D-09 6.600000000000D+01
    4.320180000000D+05 4.000000000000D+00
16 09 10 16  2  0  0.0 2.046115696430D-06-4.092726157978D-12 0.000000000000D+00
    1.600000000000D+01-1.343750000000D+01 4.766627120581D-09 2.213471517733D+00
   -6.090849637985D-07 5.300386226736D-03 3.749504685402D-06 5.153630281448D+03
    4.392000000000D+05-2.421438694000D-08 1.307930430267D+00 6.332993507385D-08
    9.693202912352D-01 3.126875000000D+02-2.680325516031D-01-8.350347825504D-09
   -1.289339420448D-10 1.000000000000D+00 1.553000000000D+03 0.000000000000D+00
    2.000000000000D+00 0.000000000000D+00-9.778887033463D-09 1.600000000000D+01
    4.331280000000D+05 4.000000000000D+00
25 09 10 16  1 59 44.0 6.326846778393D-04 1.364242052659D-11 0.000000000000D+00
    2.000000000000D+00 4.750000000000D+01 3.981951578552D-09 2.852278656718D+00
    2.549961209297D-06 1.125625323039D-02 1.214258372784D-05 5.153645071030D+03
    4.391840000000D+05 1.713633537292D-07 1.439001811744D-01 5.401670932770D-08
    9.715731397268D-01 1.482812500000D+02-1.214336670774D+00-7.613531419858D-09
    3.593006806013D-10 1.000000000000D+00 1.553000000000D+03 0.000000000000D+00
    2.000000000000D+00 0.000000000000D+00-7.450580596924D-09 2.000000000000D+00
    4.334580000000D+05 4.000000000000D+00
 7 09 10 16  2  0  0.0 9.527895599604D-06-7.958078640513D-13 0.000000000000D+00
    6.100000000000D+01 5.300000000000D+01 4.185531487044D-09-1.721289209736D+00
    2.723187208176D-06 3.215931355953D-03 1.110322773457D-05 5.153647371292D+03
    4.392000000000D+05-1.303851604462D-08 2.380586636189D-01-5.029141902924D-08
    9.694210701987D-01 1.704687500000D+02 2.990033104412D+00-7.872470777150D-09
    4.932348309248D-10 1.000000000000D+00 1.553000000000D+03 0.000000000000D+00
    2.000000000000D+00 0.000000000000D+00-1.071020960808D-08 6.100000000000D+01
    4.334580000000D+05 4.000000000000D+00
21 09 10 16  2  0  0.0-1.537241041660D-05-2.273736754432D-12 0.000000000000D+00
    7.600000000000D+01 1.084375000000D+02 5.022352058265D-09-2.655065612380D+00
    5.295500159264D-06 1.559331023600D-02 9.806826710701D-06 5.153753585815D+03
    4.392000000000D+05 2.235174179077D-08-2.888638187970D+00-2.086162567139D-07
    9.338915138158D-01 1.790000000000D+02-2.552674532112D+00-8.178197797622D-09
    5.746667943215D-10 1.000000000000D+00 1.553000000000D+03 0.000000000000D+00
    2.000000000000D+00 0.000000000000D+00-1.210719347000D-08 7.600000000000D+01
    4.374780000000D+05 4.000000000000D+00
29 09 10 16  1 59 44.0 6.632180884480D-05 3.183231456205D-12 0.000000000000D+00
    8.000000000000D+00-4.175000000000D+01 4.327680265254D-09-2.599752992867D+00
   -2.250075340271D-06 2.989437081851D-03 1.135654747486D-05 5.153595233917D+03
    4.391840000000D+05 5.401670932770D-08 2.359261209751D+00 4.470348358154D-08
    9.602146911961D-01 1.564687500000D+02-1.268979370359D+00-7.891400137062D-09
   -3.614436270064D-10 1.000000000000D+00 1.553000000000D+03 0.000000000000D+00
    2.000000000000D+00 0.000000000000D+00-8.847564458847D-09 8.000000000000D+00
    4.377060000000D+05 4.000000000000D+00
15 09 10 16  2  0  0.0-3.201910294592D-04-3.410605131648D-13 0.000000000000D+00
    7.300000000000D+01-8.521875000000D+01 4.557332688342D-09 7.892293746856D-01
   -4.587695002556D-06 1.835356815718D-03 9.678304195404D-06 5.153678693771D+03
    4.392000000000D+05-1.490116119385D-08-8.250607778817D-01 1.303851604462D-08
    9.554941237312D-01 1.882812500000D+02-5.040264570336D-01-8.140696235531D-09
   -5.118070331030D-10 1.000000000000D+00 1.553000000000D+03 0.000000000000D+00
    2.000000000000D+00 0.000000000000D+00-9.778887033463D-09 7.300000000000D+01
    4.384380000000D+05 4.000000000000D+00
 5 09 10 16  4  0  0.0-6.449501961470D-05 8.640199666843D-12 0.000000000000D+00
    1.000000000000D+01 8.093750000000D+00 5.173429779830D-09 2.424682783370D+00
    4.936009645462D-07 1.538779819384D-03 2.149492502213D-06 5.153570388794D+03
    4.464000000000D+05-4.656612873077D-08-1.860985981079D+00 4.097819328308D-08
    9.609874498760D-01 3.384062500000D+02 2.192012926251D-01-8.615358864278D-09
    9.250385315679D-11 1.000000000000D+00 1.553000000000D+03 0.000000000000D+00
    2.000000000000D+00 0.000000000000D+00-9.313225746155D-09 1.000000000000D+01
    4.392180000000D+05 4.000000000000D+00
10 09 10 16  4  0  0.0-2.600625157356D-05-1.023181539495D-12 0.000000000000D+00
    1.070000000000D+02 2.750000000000D+00 5.275934049545D-09 2.147338663103D+00
    1.192092895508D-07 8.623732835986D-03 2.259388566017D-06 5.153379739761D+03
    4.464000000000D+05-1.993030309677D-07-1.833962621847D+00-3.911554813385D-08
    9.560504714768D-01 3.355312500000D+02 6.164004112770D-01-8.648931691292D-09
    5.285934466102D-11 1.000000000000D+00 1.553000000000D+03 0.000000000000D+00
    2.000000000000D+00 0.000000000000D+00-2.793967723846D-09 1.070000000000D+02
    4.392180000000D+05 4.000000000000D+00
 7 09 10 16  4  0  0.0 9.522773325443D-06-7.958078640513D-13 0.000000000000D+00
    6.200000000000D+01 5.612500000000D+01 4.238390831705D-09-6.711348065671D-01
    2.814456820488D-06 3.215681994334D-03 1.118332147598D-05 5.153646970749D+03
    4.464000000000D+05 8.009374141693D-08 2.380022739786D-01-8.754432201386D-08
    9.694243705419D-01 1.706875000000D+02 2.990073119610D+00-7.906043604165D-09
    4.253748614275D-10 1.000000000000D+00 1.553000000000D+03 0.000000000000D+00
    2.000000000000D+00 0.000000000000D+00-1.071020960808D-08 6.200000000000D+01
    4.392180000000D+05 4.000000000000D+00
29 09 10 16  3 59 44.0 6.634462624788D-05 3.183231456205D-12 0.000000000000D+00
    9.000000000000D+00-4.928125000000D+01 4.275535236061D-09-1.549015103360D+00
   -2.514570951462D-06 2.988404245116D-03 1.099519431591D-05 5.153598688126D+03
    4.463840000000D+05-4.656612873077D-08 2.359204158871D+00 9.313225746155D-08
    9.602115590885D-01 1.676562500000D+02-1.269491322929D+00-7.998190299587D-09
   -3.750156209059D-10 1.000000000000D+00 1.553000000000D+03 0.000000000000D+00
    2.000000000000D+00 0.000000000000D+00-8.847564458847D-09 9.000000000000D+00
    4.392180000000D+05 4.000000000000D+00
25 09 10 16  3 59 44.0 6.327829323709D-04 1.364242052659D-11 0.000000000000D+00
    3.000000000000D+00 5.675000000000D+01 4.080169955456D-09-2.380751461706D+00
    2.857297658920D-06 1.125736674294D-02 1.219101250172D-05 5.153642889023D+03
    4.463840000000D+05 1.620501279831D-07 1.438453978182D-01 1.639127731323D-07
    9.715757656647D-01 1.491875000000D+02-1.214296595596D+00-7.644604142733D-09
    3.660866775510D-10 1.000000000000D+00 1.553000000000D+03 0.000000000000D+00
    2.000000000000D+00 0.000000000000D+00-7.450580596924D-09 3.000000000000D+00
    4.392180000000D+05 4.000000000000D+00
21 09 10 16  4  0  0.0-1.538917422295D-05-2.273736754432D-12 0.000000000000D+00
    9.900000000000D+01 1.024375000000D+02 4.989136388985D-09-1.604969633770D+00
    5.055218935013D-06 1.559421303682D-02 9.071081876755D-06 5.153751682281D+03
    4.464000000000D+05 1.713633537292D-07-2.888697332285D+00-1.788139343262D-07
    9.338958733117D-01 1.864062500000D+02-2.552633702068D+00-8.220342410257D-09
    5.953819429049D-10 1.000000000000D+00 1.553000000000D+03 0.000000000000D+00
    2.000000000000D+00 0.000000000000D+00-1.210719347000D-08 9.900000000000D+01
    4.392180000000D+05 4.000000000000D+00
15 09 10 16  4  0  0.0-3.201938234270D-04-3.410605131648D-13 0.000000000000D+00
    9.400000000000D+01-9.946875000000D+01 4.728768400756D-09 1.840470395368D+00
   -4.993751645088D-06 1.834927243181D-03 9.560957551003D-06 5.153674938202D+03
    4.464000000000D+05 5.774199962616D-08-8.251199485292D-01-3.166496753693D-08
    9.554904152339D-01 1.901875000000D+02-5.050874486110D-01-8.198912946205D-09
   -4.575190575052D-10 1.000000000000D+00 1.553000000000D+03 0.000000000000D+00
    2.000000000000D+00 0.000000000000D+00-9.778887033463D-09 9.400000000000D+01
    4.392180000000D+05 4.000000000000D+00
